NORAD_CAT_ID,OBJECT_NAME,OBJECT_TYPE,EPOCH,MEAN_MOTION,ECCENTRICITY,INCLINATION,RA_OF_ASC_NODE,ARG_OF_PERICENTER,MEAN_ANOMALY,BSTAR,MEAN_MOTION_DOT,MEAN_MOTION_DDOT,TLE_LINE0,TLE_LINE1,TLE_LINE2,SEMIMAJOR_AXIS,PERIOD,APOGEE,PERIGEE,DECAYED
53025.0,STARLINK-4218,PAYLOAD,2023-11-29 01:54:13,15.08865252,0.0001505,53.2152,217.3651,71.9818,288.1338,0.00094192,0.00014745,0.0,0 STARLINK-4218,1 53025U 22076AR  23333.07932745  .00014745  00000-0  94192-3 0  9992,2 53025  53.2152 217.3651 0001505  71.9818 288.1338 15.08865252 77914,6917.803,95.436,540.709,538.627,0.0
53025.0,STARLINK-4218,PAYLOAD,2023-11-30 01:45:00,15.08860363,0.000166,53.216,212.9055,72.6202,287.4972,0.001009,0.00015816,0.0,0 STARLINK-4218,1 53025U 22076AR  23334.07292788  .00015816  00000-0  10090-2 0  9993,2 53025  53.2160 212.9055 0001660  72.6202 287.4972 15.08860363 78060,6917.818,95.436,540.832,538.535,0.0
53025.0,STARLINK-4218,PAYLOAD,2023-12-01 01:35:48,15.08840116,0.0001512,53.2149,208.4433,99.6362,260.4801,0.00073794,0.00011476,0.0,0 STARLINK-4218,1 53025U 22076AR  23335.06653233  .00011476  00000-0  73794-3 0  9998,2 53025  53.2149 208.4433 0001512  99.6362 260.4801 15.08840116 78212,6917.88,95.438,540.791,538.699,0.0
53025.0,STARLINK-4218,PAYLOAD,2023-12-01 22:15:48,15.08856488,0.0001637,53.216,204.5741,92.2881,267.8299,0.00052155,8.026e-05,0.0,0 STARLINK-4218,1 53025U 22076AR  23335.92764819  .00008026  00000-0  52155-3 0  9991,2 53025  53.2160 204.5741 0001637  92.2881 267.8299 15.08856488 77879,6917.83,95.437,540.827,538.563,0.0
53025.0,STARLINK-4218,PAYLOAD,2023-12-02 01:26:34,15.08869856,0.0001637,53.2156,203.9795,93.7044,266.4135,0.0011053,0.00017361,0.0,0 STARLINK-4218,1 53025U 22076AR  23336.06012670  .00017361  00000-0  11053-2 0  9991,2 53025  53.2156 203.9795 0001637  93.7044 266.4135 15.08869856 77892,6917.789,95.436,540.787,538.522,0.0
53025.0,STARLINK-4218,PAYLOAD,2023-12-02 18:55:49,15.08849414,0.0001891,53.2149,200.705,119.579,240.539,0.00016017,2.263e-05,0.0,0 STARLINK-4218,1 53025U 22076AR  23336.78876484  .00002263  00000-0  16017-3 0  9992,2 53025  53.2149 200.7050 0001891 119.5790 240.5390 15.08849414 78479,6917.852,95.437,541.025,538.408,0.0
53025.0,STARLINK-4218,PAYLOAD,2023-12-02 22:06:35,15.08849244,0.0001512,53.215,200.1076,103.3955,256.7206,0.00020118,2.916e-05,0.0,0 STARLINK-4218,1 53025U 22076AR  23336.92124507  .00002916  00000-0  20118-3 0  9992,2 53025  53.2150 200.1076 0001512 103.3955 256.7206 15.08849244 78024,6917.852,95.437,540.763,538.671,0.0
53025.0,STARLINK-4218,PAYLOAD,2023-12-03 20:22:00,15.08822929,0.0001375,53.2152,195.9528,115.2413,244.8721,-5.2054e-05,-1.116e-05,0.0,0 STARLINK-4218,1 53025U 22076AR  23337.84861604 -.00001116  00000-0 -52054-4 0  9998,2 53025  53.2152 195.9528 0001375 115.2413 244.8721 15.08822929 78635,6917.933,95.439,540.749,538.846,0.0
53025.0,STARLINK-4218,PAYLOAD,2023-12-03 23:32:46,15.08819059,0.0001445,53.2151,195.3566,116.4706,243.6434,-8.9912e-05,-1.718e-05,0.0,0 STARLINK-4218,1 53025U 22076AR  23337.98109881 -.00001718  00000-0 -89912-4 0  9996,2 53025  53.2151 195.3566 0001445 116.4706 243.6434 15.08819059 78184,6917.944,95.439,540.809,538.81,0.0
53025.0,STARLINK-4218,PAYLOAD,2023-12-04 23:23:34,15.08829824,0.0001439,53.2147,190.8965,127.2333,232.8791,0.00021999,3.214e-05,0.0,0 STARLINK-4218,1 53025U 22076AR  23338.97470732  .00003214  00000-0  21999-3 0  9993,2 53025  53.2147 190.8965 0001439 127.2333 232.8791 15.08829824 78807,6917.911,95.438,540.772,538.781,0.0
53025.0,STARLINK-4218,PAYLOAD,2023-12-06 13:32:49,15.08851976,0.000134,53.2151,183.7586,126.0264,234.0852,0.00034967,5.283e-05,0.0,0 STARLINK-4218,1 53025U 22076AR  23340.56446141  .00005283  00000-0  34967-3 0  9995,2 53025  53.2151 183.7586 0001340 126.0264 234.0852 15.08851976 78572,6917.844,95.437,540.636,538.782,0.0
53025.0,STARLINK-4218,PAYLOAD,2023-12-08 11:39:00,15.08843554,0.0001004,53.2141,175.1371,109.8821,250.2279,0.00014197,1.973e-05,0.0,0 STARLINK-4218,1 53025U 22076AR  23342.48541777  .00001973  00000-0  14197-3 0  9994,2 53025  53.2141 175.1371 0001004 109.8821 250.2279 15.08843554 79334,6917.87,95.437,540.429,539.04,0.0
53025.0,STARLINK-4218,PAYLOAD,2023-12-08 13:14:23,15.08845133,0.0001233,53.2136,174.8403,104.4162,255.6967,0.00017762,2.54e-05,0.0,0 STARLINK-4218,1 53025U 22076AR  23342.55165854  .00002540  00000-0  17762-3 0  9992,2 53025  53.2136 174.8403 0001233 104.4162 255.6967 15.08845133 78879,6917.865,95.437,540.583,538.877,0.0
53025.0,STARLINK-4218,PAYLOAD,2023-12-08 21:11:19,15.0884188,0.0001146,53.2156,173.3544,98.4909,261.6213,6.8404e-05,8.01e-06,0.0,0 STARLINK-4218,1 53025U 22076AR  23342.88285914  .00000801  00000-0  68404-4 0  9996,2 53025  53.2156 173.3544 0001146  98.4909 261.6213 15.08841880 78927,6917.875,95.437,540.532,538.947,0.0
53025.0,STARLINK-4218,PAYLOAD,2023-12-09 11:29:47,15.0882212,0.0001247,53.2156,170.678,101.6574,258.4558,0.00020544,2.982e-05,0.0,0 STARLINK-4218,1 53025U 22076AR  23343.47901699  .00002982  00000-0  20544-3 0  9991,2 53025  53.2156 170.6780 0001247 101.6574 258.4558 15.08822120 79480,6917.935,95.439,540.663,538.937,0.0
53025.0,STARLINK-4218,PAYLOAD,2023-12-09 13:05:08,15.08858347,0.0001246,53.2156,170.3802,96.8667,263.2467,0.00026947,4.005e-05,0.0,0 STARLINK-4218,1 53025U 22076AR  23343.54524053  .00004005  00000-0  26947-3 0  9995,2 53025  53.2156 170.3802 0001246  96.8667 263.2467 15.08858347 79022,6917.824,95.436,540.551,538.827,0.0
53025.0,STARLINK-4218,PAYLOAD,2023-12-09 19:26:40,15.088659,0.0001247,53.2156,169.1909,93.1522,266.9613,0.00031185,4.682e-05,0.0,0 STARLINK-4218,1 53025U 22076AR  23343.81019148  .00004682  00000-0  31185-3 0  9990,2 53025  53.2156 169.1909 0001247  93.1522 266.9613 15.08865900 79539,6917.801,95.436,540.529,538.804,0.0
53025.0,STARLINK-4218,PAYLOAD,2023-12-09 22:37:26,15.08867257,0.0001232,53.2156,168.5962,93.0277,267.0856,0.00031501,4.733e-05,0.0,0 STARLINK-4218,1 53025U 22076AR  23343.94266868  .00004733  00000-0  31501-3 0  9996,2 53025  53.2156 168.5962 0001232  93.0277 267.0856 15.08867257 79089,6917.797,95.436,540.514,538.81,0.0
53025.0,STARLINK-4218,PAYLOAD,2023-12-10 14:31:20,15.08836357,0.0001314,53.2156,165.6226,102.1627,257.9512,2.503e-05,1.1e-06,0.0,0 STARLINK-4218,1 53025U 22076AR  23344.60509433  .00000110  00000-0  25030-4 0  9994,2 53025  53.2156 165.6226 0001314 102.1627 257.9512 15.08836357 79187,6917.892,95.438,540.666,538.848,0.0
53025.0,STARLINK-4218,PAYLOAD,2023-12-10 19:17:29,15.08834529,0.0001245,53.2156,164.7306,99.4247,260.6886,5.8991e-07,-2.78e-06,0.0,0 STARLINK-4218,1 53025U 22076AR  23344.80381602 -.00000278  00000-0  58991-6 0  9992,2 53025  53.2156 164.7306 0001245  99.4247 260.6886 15.08834529 79684,6917.897,95.438,540.623,538.901,0.0
53025.0,STARLINK-4218,PAYLOAD,2023-12-10 20:52:52,15.08834215,0.0001244,53.2156,164.4332,99.1359,260.9774,-6.1754e-06,-3.86e-06,0.0,0 STARLINK-4218,1 53025U 22076AR  23344.87005592 -.00000386  00000-0 -61754-5 0  9991,2 53025  53.2156 164.4332 0001244  99.1359 260.9774 15.08834215 79221,6917.898,95.438,540.624,538.902,0.0
53025.0,STARLINK-4218,PAYLOAD,2023-12-11 14:22:07,15.08835665,0.0001274,53.2158,161.1619,101.5826,258.531,2.9519e-05,1.82e-06,0.0,0 STARLINK-4218,1 53025U 22076AR  23345.59869575  .00000182  00000-0  29519-4 0  9994,2 53025  53.2158 161.1619 0001274 101.5826 258.5310 15.08835665 79336,6917.894,95.438,540.64,538.877,0.0
53025.0,STARLINK-4218,PAYLOAD,2023-12-11 20:43:39,15.08849179,0.0001347,53.2158,159.9725,98.1972,261.9172,-0.00016994,-2.992e-05,0.0,0 STARLINK-4218,1 53025U 22076AR  23345.86365135 -.00002992  00000-0 -16994-3 0  9992,2 53025  53.2158 159.9725 0001347  98.1972 261.9172 15.08849179 79376,6917.852,95.437,540.649,538.785,0.0
53025.0,STARLINK-4218,PAYLOAD,2023-12-12 18:59:03,15.08831966,0.0001344,53.216,155.8094,101.3248,258.7895,8.3629e-05,1.043e-05,0.0,0 STARLINK-4218,1 53025U 22076AR  23346.79101785  .00001043  00000-0  83629-4 0  9998,2 53025  53.2160 155.8094 0001344 101.3248 258.7895 15.08831966 79981,6917.905,95.438,540.7,538.84,0.0
53025.0,STARLINK-4218,PAYLOAD,2023-12-13 18:49:51,15.0883734,0.0001319,53.2161,151.3486,99.3344,260.7797,8.2937e-05,1.032e-05,0.0,0 STARLINK-4218,1 53025U 22076AR  23347.78461887  .00001032  00000-0  82937-4 0  9999,2 53025  53.2161 151.3486 0001319  99.3344 260.7797 15.08837340 79664,6917.889,95.438,540.666,538.841,0.0
53025.0,STARLINK-4218,PAYLOAD,2023-12-14 17:05:15,15.08833019,0.0001284,53.2162,147.1845,98.1187,261.9951,2.6668e-05,1.37e-06,0.0,0 STARLINK-4218,1 53025U 22076AR  23348.71198739  .00000137  00000-0  26668-4 0  9990,2 53025  53.2162 147.1845 0001284  98.1187 261.9951 15.08833019 80273,6917.902,95.438,540.655,538.878,0.0
53025.0,STARLINK-4218,PAYLOAD,2023-12-15 01:02:11,15.08837307,0.0001305,53.2165,145.6971,94.9619,265.1522,5.8709e-05,6.47e-06,0.0,0 STARLINK-4218,1 53025U 22076AR  23349.04318468  .00000647  00000-0  58709-4 0  9997,2 53025  53.2165 145.6971 0001305  94.9619 265.1522 15.08837307 79853,6917.889,95.438,540.656,538.851,0.0
53025.0,STARLINK-4218,PAYLOAD,2023-12-15 16:56:02,15.08844577,0.0001261,53.2164,142.7237,97.8581,262.2554,0.00011099,1.479e-05,0.0,0 STARLINK-4218,1 53025U 22076AR  23349.70557906  .00001479  00000-0  11099-3 0  9996,2 53025  53.2164 142.7237 0001261  97.8581 262.2554 15.08844577 80421,6917.866,95.437,540.604,538.859,0.0
53025.0,STARLINK-4218,PAYLOAD,2023-12-16 13:36:03,15.08841539,0.000123,53.2166,138.8573,94.103,266.0103,0.00010098,1.32e-05,0.0,0 STARLINK-4218,1 53025U 22076AR  23350.56670219  .00001320  00000-0  10098-3 0  9998,2 53025  53.2166 138.8573 0001230  94.1030 266.0103 15.08841539 80086,6917.876,95.437,540.592,538.89,0.0
53025.0,STARLINK-4218,PAYLOAD,2023-12-16 16:46:49,15.088424,0.0001231,53.2167,138.2625,93.5194,266.5939,0.00010553,1.392e-05,0.0,0 STARLINK-4218,1 53025U 22076AR  23350.69918158  .00001392  00000-0  10553-3 0  9994,2 53025  53.2167 138.2625 0001231  93.5194 266.5939 15.08842400 80578,6917.873,95.437,540.59,538.886,0.0
